COSMO-SKYMED 1          
1 31598U 07023A   26159.84709270  .00002133  00000+0  19031-3 0  9993
2 31598  97.8857 351.6339 0001109  81.3643 278.7704 14.97062549 28549
COSMOS 2428             
1 31792U 07029A   26159.86056334 -.00000176  00000+0 -68853-4 0  9997
2 31792  70.9374  11.9613 0007211 151.0263 209.1259 14.12929812976979
SL-16 R/B               
1 31793U 07029B   26159.75808519  .00000318  00000+0  18966-3 0  9991
2 31793  70.9760 340.9483 0002226 258.5350 117.7648 14.14850381978255
KORONAS-FOTON           
1 33504U 09003A   26159.79172448  .00010866  00000+0  22498-3 0  9990
2 33504  82.4293 181.0161 0010761 175.4380 184.6969 15.45549393959808
CZ-2C R/B               
1 37731U 11030B   26159.80042531  .00001397  00000+0  18088-3 0  9999
2 37731  97.8651 115.3384 0053599  54.7407   4.2834 14.81451762803586
H-2A R/B                
1 38341U 12025E   26159.79456752  .00003351  00000+0  30166-3 0  9997
2 38341  98.4814 134.2483 0044258  16.3102 343.9529 14.95671024761835
SHIJIAN-16 (SJ-16)      
1 39358U 13057A   26159.86095191  .00000608  00000+0  61870-4 0  9995
2 39358  74.9734  12.4535 0016934 250.0835 109.8530 14.92591711685106
SL-4 R/B                
1 39679U 14021B   26159.50842617  .00010612  00000+0  22119-3 0  9995
2 39679  51.6058 253.2847 0091641  74.4037 286.7040 15.41771019670273
ALOS-2                  
1 39766U 14029A   26159.54979360  .00001451  00000+0  20114-3 0  9994
2 39766  97.9210 256.8376 0001671  90.6305 269.5098 14.79472067650306
YAOGAN-29               
1 41038U 15069A   26159.87922094 -.00000113  00000+0 -71991-5 0  9999
2 41038  98.0033 188.4989 0002920  66.8116 293.3404 14.83076526569398
ASTRO-H (HITOMI)        
1 41337U 16012A   26159.64196262  .00002543  00000+0  14496-3 0  9997
2 41337  30.9979 129.3734 0009608 168.4621 191.6239 15.10474654565999
HXMT (HUIYAN)           
1 42758U 17034A   26159.64875872  .00004863  00000+0  24088-3 0  9996
2 42758  43.0130 230.5841 0030168  90.7810 269.6495 15.18418509496366
SAOCOM 1A               
1 43641U 18076A   26159.83221991  .00000661  00000+0  89519-4 0  9996
2 43641  97.8890 346.7027 0001551  79.1373 281.0015 14.82170328414868
H-2A R/B                
1 43682U 18084L   26159.38484378  .00020955  00000+0  44418-3 0  9996
2 43682  98.8590  36.3537 0024262  69.7971 290.5879 15.44814857419760
SAOCOM 1B               
1 46265U 20059A   26159.79598596  .00000162  00000+0  26858-4 0  9991
2 46265  97.8891 345.7611 0001453  78.6608 281.4768 14.82163202312249
CSS (TIANHE)            
1 48274U 21035A   26159.78589514  .00023223  00000+0  27715-3 0  9992
2 48274  41.4695  13.1170 0008543  10.7662 349.3358 15.60455863291854
COSMOS 2550             
1 48865U 21056A   26159.80793882  .00006310  00000+0  19790-3 0  9991
2 48865  67.1416 125.2525 0008705 266.0377  93.9783 15.33755463277435
CZ-2C R/B               
1 52794U 22058K   26159.41150744  .00030391  00000+0  34632-3 0  9999
2 52794  50.1844 209.1611 0033033 231.2479 128.5541 15.61262962224274
CZ-2C R/B               
1 54039U 22132E   26159.74470156  .00064805  00000+0  52199-3 0  9999
2 54039  97.2912 166.3976 0016958 110.0606 250.2484 15.70530965204624
GSLV R/B                
1 54149U 22138AN  26159.42921705  .00002415  00000+0  20540-3 0  9997
2 54149  87.3799 135.9257 0021506 174.1252 186.0237 14.97219181197508
XRISM                   
1 57800U 23137A   26159.41312765  .00004849  00000+0  26689-3 0  9996
2 57800  31.0026  56.4327 0007909 236.9290 123.0589 15.12389074151530
ACS3                    
1 59588U 24077B   26159.80685451  .00024418  00000+0  18253-1 0  9993
2 59588  97.1677  80.4664 0052568  68.3667 292.3087 13.93910871106879
CZ-8A R/B               
1 66004U 25231K   26159.45755791 -.00000024  00000+0  49826-4 0  9994
2 66004  50.0043  76.4554 0116474 193.2724 166.5119 14.30152525 33690
SZ-21 MODULE            
1 66515U 25246C   26159.85148265  .00040731  00000+0  25860-3 0  9992
2 66515  41.4714 359.2138 0006700 299.9993  60.0186 15.75674541 32427
