OBJECT_NAME,OBJECT_ID,EPOCH,MEAN_MOTION,ECCENTRICITY,INCLINATION,RA_OF_ASC_NODE,ARG_OF_PERICENTER,MEAN_ANOMALY,EPHEMERIS_TYPE,CLASSIFICATION_TYPE,NORAD_CAT_ID,ELEMENT_SET_NO,REV_AT_EPOCH,BSTAR,MEAN_MOTION_DOT,MEAN_MOTION_DDOT
COSMO-SKYMED 1,2007-023A,2026-06-08T20:19:48.809280,14.97062549,.0001109,97.8857,351.6339,81.3643,278.7704,0,U,31598,999,2854,.19031E-3,.2133E-4,0
COSMOS 2428,2007-029A,2026-06-08T20:39:12.672576,14.12929812,.0007211,70.9374,11.9613,151.0263,209.1259,0,U,31792,999,97697,-.68853E-4,-.176E-5,0
SL-16 R/B,2007-029B,2026-06-08T18:11:38.560416,14.14850381,.0002226,70.9760,340.9483,258.5350,117.7648,0,U,31793,999,97825,.18966E-3,.318E-5,0
KORONAS-FOTON,2009-003A,2026-06-08T19:00:04.995072,15.45549393,.0010761,82.4293,181.0161,175.4380,184.6969,0,U,33504,999,95980,.22498E-3,.10866E-3,0
CZ-2C R/B,2011-030B,2026-06-08T19:12:36.746784,14.81451762,.0053599,97.8651,115.3384,54.7407,4.2834,0,U,37731,999,80358,.18088E-3,.1397E-4,0
H-2A R/B,2012-025E,2026-06-08T19:04:10.633728,14.95671024,.0044258,98.4814,134.2483,16.3102,343.9529,0,U,38341,999,76183,.30166E-3,.3351E-4,0
SHIJIAN-16 (SJ-16),2013-057A,2026-06-08T20:39:46.245024,14.92591711,.0016934,74.9734,12.4535,250.0835,109.8530,0,U,39358,999,68510,.6187E-4,.608E-5,0
SL-4 R/B,2014-021B,2026-06-08T12:12:08.021088,15.41771019,.00916416,51.6058,253.2847,74.4037,286.7040,0,U,39679,999,67027,.22119414E-3,.10612E-3,0
ALOS-2,2014-029A,2026-06-08T13:11:42.167040,14.79472067,.00016718,97.9210,256.8376,90.6305,269.5098,0,U,39766,999,65030,.20114351E-3,.1451E-4,0
YAOGAN-29,2015-069A,2026-06-08T21:06:04.689216,14.83076526,.000292,98.0033,188.4989,66.8116,293.3404,0,U,41038,999,56939,-.71991E-5,-.113E-5,0
ASTRO-H (HITOMI),2016-012A,2026-06-08T15:24:25.570368,15.10474654,.0009608,30.9979,129.3734,168.4621,191.6239,0,U,41337,999,56599,.14496E-3,.2543E-4,0
HXMT (HUIYAN),2017-034A,2026-06-08T15:34:12.753408,15.18418509,.0030168,43.0130,230.5841,90.7810,269.6495,0,U,42758,999,49636,.24088E-3,.4863E-4,0
SAOCOM 1A,2018-076A,2026-06-08T19:58:23.800224,14.82170328,.0001551,97.8890,346.7027,79.1373,281.0015,0,U,43641,999,41486,.89519E-4,.661E-5,0
H-2A R/B,2018-084L,2026-06-08T09:14:10.502592,15.44814857,.0024262,98.8590,36.3537,69.7971,290.5879,0,U,43682,999,41976,.44418E-3,.20955E-3,0
SAOCOM 1B,2020-059A,2026-06-08T19:06:13.186944,14.82163202,.0001453,97.8891,345.7611,78.6608,281.4768,0,U,46265,999,31224,.26858E-4,.162E-5,0
CSS (TIANHE),2021-035A,2026-06-08T18:51:41.340096,15.60455863,.0008543,41.4695,13.1170,10.7662,349.3358,0,U,48274,999,29185,.27715E-3,.23223E-3,0
COSMOS 2550,2021-056A,2026-06-08T19:23:25.914048,15.33755463,.0008705,67.1416,125.2525,266.0377,93.9783,0,U,48865,999,27743,.1979E-3,.631E-4,0
CZ-2C R/B,2022-058K,2026-06-08T09:52:34.242816,15.61262962,.00330338,50.1844,209.1611,231.2479,128.5541,0,U,52794,999,22427,.34632188E-3,.30391E-3,0
CZ-2C R/B,2022-132E,2026-06-08T17:52:22.214784,15.70530965,.0016958,97.2912,166.3976,110.0606,250.2484,0,U,54039,999,20462,.52199E-3,.64805E-3,0
GSLV R/B,2022-138AN,2026-06-08T10:18:04.353120,14.97219181,.00215067,87.3799,135.9257,174.1252,186.0237,0,U,54149,999,19750,.20540323E-3,.2415E-4,0
XRISM,2023-137A,2026-06-08T09:54:54.228960,15.12389074,.00079097,31.0026,56.4327,236.9290,123.0589,0,U,57800,999,15153,.266887E-3,.4849E-4,0
ACS3,2024-077B,2026-06-08T19:21:52.229664,13.93910871,.0052568,97.1677,80.4664,68.3667,292.3087,0,U,59588,999,10687,.18253E-1,.24418E-3,0
CZ-8A R/B,2025-231K,2026-06-08T10:58:53.003424,14.30152525,.01164745,50.0043,76.4554,193.2724,166.5119,0,U,66004,999,3369,.4982629E-4,-.24E-6,0
SZ-21 MODULE,2025-246C,2026-06-08T20:26:08.100960,15.75674541,.00067,41.4714,359.2138,299.9993,60.0186,0,U,66515,999,3242,.2586E-3,.40731E-3,0
